[{"OBJECT_NAME":"QIANFAN-32","OBJECT_ID":"2024-185P","EPOCH":"2026-03-09T22:40:40.766592","MEAN_MOTION":13.50765263,"ECCENTRICITY":0.00101134,"INCLINATION":88.9785,"RA_OF_ASC_NODE":72.0002,"ARG_OF_PERICENTER":160.716,"MEAN_ANOMALY":199.4376,"EPHEMERIS_TYPE":0,"CLASSIFICATION_TYPE":"U","NORAD_CAT_ID":61565,"ELEMENT_SET_NO":999,"REV_AT_EPOCH":7981,"BSTAR":0.00023987945,"MEAN_MOTION_DOT":1.66e-6,"MEAN_MOTION_DDOT":0},{"OBJECT_NAME":"FREGAT DEB","OBJECT_ID":"2011-037CW","EPOCH":"2026-03-09T21:38:06.099936","MEAN_MOTION":10.70598673,"ECCENTRICITY":0.16059375,"INCLINATION":51.2697,"RA_OF_ASC_NODE":240.8368,"ARG_OF_PERICENTER":173.3795,"MEAN_ANOMALY":189.1287,"EPHEMERIS_TYPE":0,"CLASSIFICATION_TYPE":"U","NORAD_CAT_ID":45872,"ELEMENT_SET_NO":999,"REV_AT_EPOCH":22190,"BSTAR":0.028378975,"MEAN_MOTION_DOT":5.788e-5,"MEAN_MOTION_DDOT":0}]
